*******************************************************************************
Ephemeris / WWW_USER Mon Dec 26 17:50:29 2016 Pasadena, USA      / Horizons    
*******************************************************************************
Target body name: Moon (301)                      {source: DE431mx}
Center body name: Earth (399)                     {source: DE431mx}
Center-site name: (user defined site below)
*******************************************************************************
Start time      : A.D. 2019-Sep-01 00:00:00.0000 UT      
Stop  time      : A.D. 2020-Jan-02 00:00:00.0000 UT      
Step-size       : 2 minutes
*******************************************************************************
Target pole/equ : IAU_MOON                        {East-longitude +}
Target radii    : 1737.4 x 1737.4 x 1737.4 km     {Equator, meridian, pole}    
Center geodetic : 284.844200,39.9494000,-1.01E-12 {E-lon(deg),Lat(deg),Alt(km)}
Center cylindric: 284.844200,4896.31709,4073.6801 {E-lon(deg),Dxy(km),Dz(km)}
Center pole/equ : High-precision EOP model        {East-longitude +}
Center radii    : 6378.1 x 6378.1 x 6356.8 km     {Equator, meridian, pole}    
Target primary  : Earth
Vis. interferer : MOON (R_eq= 1737.400) km        {source: DE431mx}
Rel. light bend : Sun, EARTH                      {source: DE431mx}
Rel. lght bnd GM: 1.3271E+11, 3.9860E+05 km^3/s^2                              
Atmos refraction: NO (AIRLESS)
RA format       : HMS
Time format     : CAL 
RTS-only print  : NO       
EOP file        : eop.161226.p170319                                           
EOP coverage    : DATA-BASED 1962-JAN-20 TO 2016-DEC-26. PREDICTS-> 2017-MAR-18
Units conversion: 1 au= 149597870.700 km, c= 299792.458 km/s, 1 day= 86400.0 s 
Table cut-offs 1: Elevation (-90.0deg=NO ),Airmass (>38.000=NO), Daylight (NO )
Table cut-offs 2: Solar Elongation (  0.0,180.0=NO ),Local Hour Angle( 0.0=NO )
*******************************************************************************
 Date__(UT)__HR:MN     Azi_(a-appr)_Elev
****************************************
$$SOE
 2019-Oct-21 03:12      58.7503  -2.2593
 2019-Oct-21 03:14      59.0640  -1.9448
 2019-Oct-21 03:16      59.3766  -1.6293
 2019-Oct-21 03:18      59.6881  -1.3127
 2019-Oct-21 03:20      59.9986  -0.9950
 2019-Oct-21 03:22  r   60.3081  -0.6763
 2019-Oct-21 03:24  m   60.6166  -0.3567
 2019-Oct-21 03:26  m   60.9240  -0.0360
 2019-Oct-21 03:28  m   61.2306   0.2857
 2019-Oct-21 03:30  m   61.5361   0.6084
 2019-Oct-21 03:32  m   61.8407   0.9320
 2019-Oct-21 03:34  m   62.1444   1.2566
 2019-Oct-21 03:36  m   62.4472   1.5822
 2019-Oct-21 03:38  m   62.7491   1.9086
 2019-Oct-21 03:40  m   63.0502   2.2360
 2019-Oct-21 03:42  m   63.3503   2.5643
 2019-Oct-21 03:44  m   63.6497   2.8935
 2019-Oct-21 03:46  m   63.9482   3.2236
 2019-Oct-21 03:48  m   64.2459   3.5546
 2019-Oct-21 03:50  m   64.5428   3.8864
 2019-Oct-21 03:52  m   64.8389   4.2191
 2019-Oct-21 03:54  m   65.1343   4.5526
 2019-Oct-21 03:56  m   65.4290   4.8870
 2019-Oct-21 03:58  m   65.7229   5.2222
 2019-Oct-21 04:00  m   66.0161   5.5582
 2019-Oct-21 04:02  m   66.3086   5.8950
 2019-Oct-21 04:04  m   66.6005   6.2326
 2019-Oct-21 04:06  m   66.8917   6.5710
 2019-Oct-21 04:08  m   67.1823   6.9101
 2019-Oct-21 04:10  m   67.4722   7.2500
 2019-Oct-21 04:12  m   67.7616   7.5907
 2019-Oct-21 04:14  m   68.0504   7.9321
 2019-Oct-21 04:16  m   68.3386   8.2742
 2019-Oct-21 04:18  m   68.6262   8.6171
 2019-Oct-21 04:20  m   68.9133   8.9606
 2019-Oct-21 04:22  m   69.1999   9.3049
 2019-Oct-21 04:24  m   69.4861   9.6499
 2019-Oct-21 04:26  m   69.7717   9.9955
 2019-Oct-21 04:28  m   70.0569  10.3418
 2019-Oct-21 04:30  m   70.3417  10.6888
 2019-Oct-21 04:32  m   70.6260  11.0364
 2019-Oct-21 04:34  m   70.9099  11.3847
 2019-Oct-21 04:36  m   71.1935  11.7336
 2019-Oct-21 04:38  m   71.4766  12.0831
 2019-Oct-21 04:40  m   71.7595  12.4333
 2019-Oct-21 04:42  m   72.0420  12.7841
 2019-Oct-21 04:44  m   72.3242  13.1354
 2019-Oct-21 04:46  m   72.6061  13.4874
 2019-Oct-21 04:48  m   72.8877  13.8399
 2019-Oct-21 04:50  m   73.1691  14.1930
 2019-Oct-21 04:52  m   73.4503  14.5467
 2019-Oct-21 04:54  m   73.7313  14.9009
 2019-Oct-21 04:56  m   74.0120  15.2557
 2019-Oct-21 04:58  m   74.2926  15.6110
 2019-Oct-21 05:00  m   74.5731  15.9668
 2019-Oct-21 05:02  m   74.8534  16.3231
 2019-Oct-21 05:04  m   75.1336  16.6800
 2019-Oct-21 05:06  m   75.4138  17.0374
 2019-Oct-21 05:08  m   75.6938  17.3952
 2019-Oct-21 05:10  m   75.9738  17.7536
 2019-Oct-21 05:12  m   76.2538  18.1124
 2019-Oct-21 05:14  m   76.5338  18.4716
 2019-Oct-21 05:16  m   76.8139  18.8314
 2019-Oct-21 05:18  m   77.0939  19.1916
 2019-Oct-21 05:20  m   77.3741  19.5522
 2019-Oct-21 05:22  m   77.6543  19.9133
 2019-Oct-21 05:24  m   77.9346  20.2748
 2019-Oct-21 05:26  m   78.2151  20.6367
 2019-Oct-21 05:28  m   78.4957  20.9990
 2019-Oct-21 05:30  m   78.7765  21.3617
 2019-Oct-21 05:32  m   79.0575  21.7248
 2019-Oct-21 05:34  m   79.3388  22.0883
 2019-Oct-21 05:36  m   79.6203  22.4522
 2019-Oct-21 05:38  m   79.9020  22.8164
 2019-Oct-21 05:40  m   80.1841  23.1810
 2019-Oct-21 05:42  m   80.4665  23.5459
 2019-Oct-21 05:44  m   80.7493  23.9112
 2019-Oct-21 05:46  m   81.0325  24.2768
 2019-Oct-21 05:48  m   81.3160  24.6427
 2019-Oct-21 05:50  m   81.6000  25.0089
 2019-Oct-21 05:52  m   81.8845  25.3755
 2019-Oct-21 05:54  m   82.1694  25.7423
 2019-Oct-21 05:56  m   82.4549  26.1095
 2019-Oct-21 05:58  m   82.7409  26.4769
 2019-Oct-21 06:00  m   83.0275  26.8446
 2019-Oct-21 06:02  m   83.3147  27.2125
 2019-Oct-21 06:04  m   83.6026  27.5807
 2019-Oct-21 06:06  m   83.8911  27.9491
 2019-Oct-21 06:08  m   84.1803  28.3178
 2019-Oct-21 06:10  m   84.4702  28.6867
 2019-Oct-21 06:12  m   84.7609  29.0558
 2019-Oct-21 06:14  m   85.0524  29.4251
 2019-Oct-21 06:16  m   85.3448  29.7946
 2019-Oct-21 06:18  m   85.6380  30.1644
 2019-Oct-21 06:20  m   85.9321  30.5342
 2019-Oct-21 06:22  m   86.2271  30.9043
 2019-Oct-21 06:24  m   86.5231  31.2745
 2019-Oct-21 06:26  m   86.8201  31.6449
 2019-Oct-21 06:28  m   87.1181  32.0154
 2019-Oct-21 06:30  m   87.4172  32.3860
 2019-Oct-21 06:32  m   87.7175  32.7568
 2019-Oct-21 06:34  m   88.0189  33.1277
 2019-Oct-21 06:36  m   88.3215  33.4986
 2019-Oct-21 06:38  m   88.6253  33.8697
 2019-Oct-21 06:40  m   88.9304  34.2409
 2019-Oct-21 06:42  m   89.2368  34.6121
 2019-Oct-21 06:44  m   89.5447  34.9834
 2019-Oct-21 06:46  m   89.8539  35.3547
 2019-Oct-21 06:48  m   90.1646  35.7260
 2019-Oct-21 06:50  m   90.4768  36.0974
 2019-Oct-21 06:52  m   90.7905  36.4688
 2019-Oct-21 06:54  m   91.1058  36.8402
 2019-Oct-21 06:56  m   91.4228  37.2116
 2019-Oct-21 06:58  m   91.7415  37.5830
 2019-Oct-21 07:00  m   92.0620  37.9544
 2019-Oct-21 07:02  m   92.3842  38.3257
 2019-Oct-21 07:04  m   92.7084  38.6969
 2019-Oct-21 07:06  m   93.0344  39.0681
 2019-Oct-21 07:08  m   93.3624  39.4392
 2019-Oct-21 07:10  m   93.6925  39.8102
 2019-Oct-21 07:12  m   94.0246  40.1810
 2019-Oct-21 07:14  m   94.3590  40.5518
 2019-Oct-21 07:16  m   94.6955  40.9224
 2019-Oct-21 07:18  m   95.0343  41.2929
 2019-Oct-21 07:20  m   95.3755  41.6632
 2019-Oct-21 07:22  m   95.7191  42.0333
 2019-Oct-21 07:24  m   96.0651  42.4033
 2019-Oct-21 07:26  m   96.4138  42.7730
 2019-Oct-21 07:28  m   96.7651  43.1425
 2019-Oct-21 07:30  m   97.1191  43.5117
 2019-Oct-21 07:32  m   97.4758  43.8807
 2019-Oct-21 07:34  m   97.8355  44.2494
 2019-Oct-21 07:36  m   98.1981  44.6178
 2019-Oct-21 07:38  m   98.5637  44.9859
 2019-Oct-21 07:40  m   98.9325  45.3537
 2019-Oct-21 07:42  m   99.3044  45.7211
 2019-Oct-21 07:44  m   99.6797  46.0882
 2019-Oct-21 07:46  m  100.0583  46.4548
 2019-Oct-21 07:48  m  100.4405  46.8211
 2019-Oct-21 07:50  m  100.8262  47.1869
 2019-Oct-21 07:52  m  101.2156  47.5523
 2019-Oct-21 07:54  m  101.6088  47.9172
 2019-Oct-21 07:56  m  102.0060  48.2816
 2019-Oct-21 07:58  m  102.4071  48.6455
 2019-Oct-21 08:00  m  102.8124  49.0088
 2019-Oct-21 08:02  m  103.2219  49.3716
 2019-Oct-21 08:04  m  103.6358  49.7338
 2019-Oct-21 08:06  m  104.0541  50.0953
 2019-Oct-21 08:08  m  104.4771  50.4562
 2019-Oct-21 08:10  m  104.9048  50.8165
 2019-Oct-21 08:12  m  105.3375  51.1760
 2019-Oct-21 08:14  m  105.7751  51.5348
 2019-Oct-21 08:16  m  106.2179  51.8929
 2019-Oct-21 08:18  m  106.6660  52.2501
 2019-Oct-21 08:20  m  107.1196  52.6065
 2019-Oct-21 08:22  m  107.5788  52.9621
 2019-Oct-21 08:24  m  108.0438  53.3168
 2019-Oct-21 08:26  m  108.5148  53.6705
 2019-Oct-21 08:28  m  108.9918  54.0233
 2019-Oct-21 08:30  m  109.4752  54.3751
 2019-Oct-21 08:32  m  109.9650  54.7258
 2019-Oct-21 08:34  m  110.4616  55.0754
 2019-Oct-21 08:36  m  110.9649  55.4239
 2019-Oct-21 08:38  m  111.4753  55.7713
 2019-Oct-21 08:40  m  111.9930  56.1174
 2019-Oct-21 08:42  m  112.5181  56.4623
 2019-Oct-21 08:44  m  113.0509  56.8058
 2019-Oct-21 08:46  m  113.5916  57.1480
 2019-Oct-21 08:48  m  114.1405  57.4888
 2019-Oct-21 08:50  m  114.6977  57.8281
 2019-Oct-21 08:52  m  115.2635  58.1659
 2019-Oct-21 08:54  m  115.8381  58.5021
 2019-Oct-21 08:56  m  116.4219  58.8366
 2019-Oct-21 08:58  m  117.0150  59.1695
 2019-Oct-21 09:00  m  117.6177  59.5006
 2019-Oct-21 09:02  m  118.2303  59.8299
 2019-Oct-21 09:04  m  118.8531  60.1572
 2019-Oct-21 09:06  m  119.4864  60.4826
 2019-Oct-21 09:08  m  120.1304  60.8060
 2019-Oct-21 09:10  m  120.7855  61.1272
 2019-Oct-21 09:12  m  121.4519  61.4462
 2019-Oct-21 09:14  m  122.1300  61.7629
 2019-Oct-21 09:16  m  122.8201  62.0772
 2019-Oct-21 09:18  m  123.5225  62.3891
 2019-Oct-21 09:20  m  124.2375  62.6984
 2019-Oct-21 09:22  m  124.9655  63.0051
 2019-Oct-21 09:24  m  125.7068  63.3090
 2019-Oct-21 09:26  m  126.4618  63.6101
 2019-Oct-21 09:28  m  127.2308  63.9082
 2019-Oct-21 09:30  m  128.0141  64.2032
 2019-Oct-21 09:32  m  128.8121  64.4951
 2019-Oct-21 09:34  m  129.6251  64.7836
